1 27642U 03002A   04150.50632899  .00000773  00000-0  79818-4 0  9992
2 27642  94.0030  76.2282 0002811  58.9164 301.2303 14.90883306 74859
1 27642U 03002A   04150.84193044  .00000352  00000-0  37072-4 0  9992
2 27642  94.0033  76.3985 0002926  65.6872 294.4596 14.90879169 74906
1 27642U 03002A   04151.84872690 -.00000220  00000-0 -20999-4 0  9990
2 27642  94.0027  76.9090 0002819  53.2893 306.8549 14.90873675 75058
1 27642U 03002A   04152.85552239 -.00000550  00000-0 -54592-4 0  9998
2 27642  94.0026  77.4202 0002815  46.0030 314.1422 14.90869910 75203
1 27642U 03002A   04153.86231739 -.00000762  00000-0 -76105-4 0  9998
2 27642  94.0030  77.9324 0002821  39.5084 320.6346 14.90866768 75352
1 27642U 03002A   04155.20470921 -.00000782  00000-0 -78136-4 0  9994
2 27642  94.0039  78.6158 0002745  38.6259 321.5178 14.90864504 75554
1 27642U 03002A   04155.80878285 -.00000607 +00000-0 -60352-4 0  9992
2 27642 094.0038 078.9228 0002711 035.8039 324.3369 14.90865111075640
1 27642U 03002A   04156.21149983 -.00000553  00000-0 -54910-4 0  9997
2 27642  94.0041  79.1277 0002658  39.5852 320.5574 14.90865053 75703
1 27642U 03002A   04156.81557290 -.00000303 +00000-0 -29470-4 0  9993
2 27642 094.0042 079.4348 0002632 035.1617 324.9804 14.90866535075798
1 27642U 03002A   04157.21828835 -.00000180  00000-0 -17004-4 0  9997
2 27642  94.0045  79.6397 0002602  42.0522 318.0913 14.90867272 75857
1 27642U 03002A   04157.82235957 +.00000105 +00000-0 +11967-4 0  9998
2 27642 094.0047 079.9469 0002613 037.2319 322.9089 14.90869512075941
1 27642U 03002A   04158.22507586  .00000233  00000-0  24983-4 0  9997
2 27642  94.0048  80.1514 0002593  43.6141 316.5372 14.90870629 76001
1 27642U 03002A   04158.82914525 +.00000458 +00000-0 +47810-4 0  9991
2 27642 094.0051 080.4592 0002588 035.6825 324.4587 14.90872832076091
1 27642U 03002A   04159.23186027  .00000470  00000-0  49037-4 0  9992
2 27642  94.0052  80.6641 0002591  34.7822 325.3574 14.90873304 76158
1 27642U 03002A   04159.83593087 +.00000611 +00000-0 +63405-4 0  9998
2 27642 094.0052 080.9712 0002521 036.0135 324.1261 14.90875140076245
1 27642U 03002A   04160.50712133  .00000655  00000-0  67860-4 0  9996
2 27642  94.0051  81.3122 0002468  38.2897 321.8501 14.90876355 76344
1 27642U 03002A   04160.84271621 +.00000683 +00000-0 +70732-4 0  9998
2 27642 094.0051 081.4829 0002428 036.5258 323.6132 14.90877044076398
1 27642U 03002A   04161.51390614  .00000706  00000-0  73006-4 0  9990
2 27642  94.0051  81.8240 0002401  36.6447 323.4940 14.90878174 76492
1 27642U 03002A   04161.84950123 +.00000697 +00000-0 +72071-4 0  9993
2 27642 094.0051 081.9947 0002384 036.1305 324.0081 14.90878575076549
1 27642U 03002A   04162.52069081  .00000692  00000-0  71556-4 0  9995
2 27642  94.0053  82.3363 0002349  35.4747 324.6632 14.90879473 76648
1 27642U 03002A   04162.85628888 +.00000469 +00000-0 +48906-4 0  9992
2 27642 094.0055 082.5077 0002341 047.4020 312.7401 14.90877975076695
1 27642U 03002A   04163.46036327  .00000168  00000-0  18394-4 0  9995
2 27642  94.0053  82.8152 0002277  29.8976 330.2352 14.90876016 76787
1 27642U 03002A   04163.79596420 -.00000164 +00000-0 -15364-4 0  9998
2 27642 094.0057 082.9869 0002239 051.6474 308.4952 14.90873220076834
1 27642U 03002A   04164.46715882 -.00000359  00000-0 -35220-4 0  9997
2 27642  94.0056  83.3284 0002144  38.2146 321.9223 14.90871359 76934
1 27642U 03002A   04164.80275903 -.00000649 +00000-0 -64611-4 0  9998
2 27642 094.0058 083.4997 0002202 053.4411 306.6975 14.90868606076987